CORVUS BC4              
1 43767U 18099K   26189.09307823  .00001994  00000+0  11760-3 0  9992
2 43767  97.4056 231.4618 0006524 292.0525  68.0013 15.12664614415562
M2 PATHFINDER           
1 45727U 20037E   26188.99409043  .00001459  00000+0  10783-3 0  9990
2 45727  97.8159  20.4606 0013299  84.3901 275.8841 15.04775128328629
NETSAT-4                
1 46504U 20068U   26188.92562277  .00011568  00000+0  25088-3 0  9996
2 46504  97.8609 198.8425 0003860 224.2635 135.8304 15.44579365318979
NETSAT-3                
1 46505U 20068V   26188.94760405  .00011486  00000+0  25898-3 0  9990
2 46505  97.8657 197.0573 0003107 246.5118 113.5802 15.43427557318885
NETSAT-1                
1 46506U 20068W   26188.93216529  .00007099  00000+0  21084-3 0  9991
2 46506  97.8754 191.1236 0002579 307.9301  52.1707 15.35130040318480
NETSAT-2                
1 46507U 20068X   26189.00036933  .00014744  00000+0  29455-3 0  9995
2 46507  97.8622 198.8969 0001420 252.4600 107.6493 15.46933432318950
GREENCUBE (IO-117)      
1 53109U 22080E   26189.19521522 -.00000003  00000+0  00000+0 0  9995
2 53109  70.1427 290.9400 0009007 285.1341  74.8322  6.42583247 93419
SITRO-AIS 5 (KATYS)     
1 57176U 23091L   26189.13348726  .00007316  00000+0  25450-3 0  9996
2 57176  97.5048 253.2374 0011431  36.7981 323.4042 15.29954358167543
SITRO-AIS 6 (CHIRKIN)   
1 57192U 23091AC  26189.16128775  .00005880  00000+0  22874-3 0  9998
2 57192  97.5056 252.2720 0011892  40.2771 319.9346 15.26347398167489
SITRO-AIS 8 (ANOKHIN)   
1 57193U 23091AD  26189.17860316  .00009016  00000+0  28730-3 0  9996
2 57193  97.5044 254.9584 0010247  32.6266 327.5607 15.32729218167668
SITRO-AIS 7 (FARTUSHNIY)
1 57194U 23091AE  26189.16878740  .00006077  00000+0  23860-3 0  9999
2 57194  97.5052 252.0935 0011850  41.3871 318.8263 15.26025762167473
SITRO-AIS 10 (BURDAEV)  
1 57199U 23091AK  26189.18539197  .00013381  00000+0  34345-3 0  9992
2 57199  97.5068 260.2399 0005519   9.8877 350.2476 15.39438989167996
SITRO-AIS 9 (SHCHUKIN)  
1 57201U 23091AM  26189.15357725  .00012324  00000+0  32184-3 0  9993
2 57201  97.5067 259.9205 0005809  10.0589 350.0771 15.38926980167972
SITRO-AIS 12 (SMIRENNIY)
1 57204U 23091AQ  26189.14020867  .00011907  00000+0  30813-3 0  9992
2 57204  97.5080 260.3873 0005325   3.9128 356.2158 15.39219012167991
SITRO-AIS 11 (SHEFFER)  
1 57208U 23091AU  26189.14775100  .00012647  00000+0  32245-3 0  9996
2 57208  97.5078 260.6549 0005219   3.4681 356.6600 15.39660664168019
SITRO-AIS 25            
1 59066U 24039R   26189.21227964  .00001076  00000+0  86357-4 0  9999
2 59066  95.3897 249.5408 0142402 254.2565 104.2916 14.93618030127865
SITRO-AIS 26            
1 59067U 24039S   26189.21654483  .00001682  00000+0  13400-3 0  9991
2 59067  95.3897 249.4369 0142725 254.8696 103.6705 14.93408157127855
SITRO-AIS 27            
1 59068U 24039T   26189.18087863  .00002349  00000+0  18430-3 0  9999
2 59068  95.3902 249.6940 0141813 253.5301 105.0301 14.93832052127871
SITRO-AIS 28            
1 59071U 24039U   26189.22483116  .00001842  00000+0  14511-3 0  9992
2 59071  95.3901 249.7725 0141679 253.2151 105.3491 14.93864957127889
GRBBETA                 
1 60237U 24128C   26188.46154758  .00002460  00000+0  17646-3 0  9998
2 60237  61.9890 145.1259 0037997 138.9442 221.4522 15.06772780109322
OOV-CUBE (TUBSAT-30)    
1 60240U 24128F   26187.41788603  .00002062  00000+0  16592-3 0  9995
2 60240  61.9939 158.5121 0042205 138.0070 222.4270 15.02848993109004
ROBUSTA-3A (MEDITERRAN*)
1 60243U 24128J   26188.96976168  .00003976  00000+0  24001-3 0  9993
2 60243  61.9855 134.7365 0038797 132.3778 228.0613 15.11915362109562
LASARSAT                
1 62391U 24247Q   26188.96249139  .00022052  00000+0  42253-3 0  9997
2 62391  44.9724 145.3589 0006527 113.9760 246.1814 15.47683321 86533
CROCUBE                 
1 62394U 24247T   26186.35536948  .00062671  00000+0  11046-2 0  9994
2 62394  44.9708 157.0633 0006223  99.0627 261.0968 15.49608608 86169
FORESAIL-1 PRIME        
1 66778U 25276DS  26188.74997538  .00003663  00000+0  17882-3 0  9999
2 66778  97.4189 261.6460 0003396  60.7942 299.3632 15.18895073 33522
KNACKSAT-2              
1 67683U 98067XZ  26187.43025761  .00050889  00000+0  57855-3 0  9994
2 67683  51.6265 197.5608 0008259 296.8985  63.1164 15.61755488 23280
